[{"OBJECT_NAME":"YAOGAN-33 01","OBJECT_ID":"2020-103A","EPOCH":"2026-03-09T23:33:33.988896","MEAN_MOTION":14.58835093,"ECCENTRICITY":0.00042815,"INCLINATION":98.0558,"RA_OF_ASC_NODE":313.645,"ARG_OF_PERICENTER":85.5228,"MEAN_ANOMALY":274.646,"EPHEMERIS_TYPE":0,"CLASSIFICATION_TYPE":"U","NORAD_CAT_ID":47302,"ELEMENT_SET_NO":999,"REV_AT_EPOCH":27684,"BSTAR":0.00014306185,"MEAN_MOTION_DOT":6.25e-6,"MEAN_MOTION_DDOT":0},{"OBJECT_NAME":"COSMOS 2251 DEB","OBJECT_ID":"1993-036AWX","EPOCH":"2026-03-07T01:13:44.334912","MEAN_MOTION":14.4748635,"ECCENTRICITY":0.00600565,"INCLINATION":74.026,"RA_OF_ASC_NODE":296.2426,"ARG_OF_PERICENTER":51.5689,"MEAN_ANOMALY":309.0839,"EPHEMERIS_TYPE":0,"CLASSIFICATION_TYPE":"U","NORAD_CAT_ID":36005,"ELEMENT_SET_NO":999,"REV_AT_EPOCH":88804,"BSTAR":0.00016533032,"MEAN_MOTION_DOT":5.93e-6,"MEAN_MOTION_DDOT":0}]
